              M50 Cartesian                         M50 Keplerian  
    -----------------------------------       --------------------------------
     X    =       -4767020.46                 A    =         6788006.02  meter
     Y    =        4597456.80  meter          E    =           .0009102
     Z    =       -1467086.73                 I    =           51.85770
     XDOT =      -4288.777296                 Wp   =           24.74793
     YDOT =      -2603.030647  meter/sec      RA   =          146.05545  deg
     ZDOT =       5799.401590                 TA   =          319.29030
                                              MA   =          319.35829
                                              Ha   =            220.418  n.mi
                                              Hp   =            214.918
 
              M50 Cartesian                         J2K Cartesian  
    -----------------------------------       --------------------------------
     X    =      -15639830.91                 X    =        -4810949.68
     Y    =       15083519.70  feet           Y    =         4543903.01  meter
     Z    =       -4813276.67                 Z    =        -1490350.70
     XDOT =     -14070.791655                 XDOT =       -4287.521464
     YDOT =      -8540.126794  feet/sec       YDOT =       -2650.982867  meter/sec
     ZDOT =      19026.908104                 ZDOT =        5778.571414
 
              TDR Cartesian                         TDR Cartesian  
    -----------------------------------       --------------------------------
     X    =         642843.48                 X    =          195938.69
     Y    =      -21695932.19  feet           Y    =        -6612920.13  meter
     Z    =       -4915057.31                 Z    =        -1498109.47
     XDOT =      14540.044100                 XDOT =        4431.805442
     YDOT =      -3843.877692  feet/sec       YDOT =       -1171.613921  meter/sec
     ZDOT =      18936.833854                 ZDOT =        5771.946959
  
  
    The mean element set is posted at the UTC for which position is
    just north of the next ascending node relative to the above
    vector time
 
 
    TWO LINE MEAN ELEMENT SET
  
    ISS
    1 25544U 98067A   16079.13633900  .00016717  00000-0  10270-3 0  9140
    2 25544  51.6402 147.1459 0002165 322.8022  37.2980 15.54255232 30976
  
  
    Satellite: ISS
    Catalog Number: 25544
    Epoch time:      16079.13633900   =   yrday.fracday
    Element set:     914
    Inclination:       51.6402  deg
    RA of node:       147.1459  deg
    Eccentricity:     .0002165     
    Arg of perigee:   322.8022  deg
    Mean anomaly:      37.2980  deg
    Mean motion:   15.54255232  rev/day
    Decay rate:    1.67170E-04  rev/day^2
    Epoch rev:            3097
    Checksum:              290
 
 
    Coasting Arc #16 (Orbit 3112)
    ---------------------------------------
 
    Vector Time (GMT): 2016/080/03:12:07.000
    Vector Time (MET): N/A
    Weight (LBS)     : 905198.2
 
              M50 Cartesian                         M50 Keplerian  
    -----------------------------------       --------------------------------
     X    =        5421262.98                 A    =         6788808.27  meter
     Y    =       -4068072.67  meter          E    =           .0009377
     Z    =        -303844.84                 I    =           51.88716
     XDOT =       2631.583556                 Wp   =          133.87040
     YDOT =       3947.705625  meter/sec      RA   =          141.10041  deg
     ZDOT =      -6023.000862                 TA   =           49.39261
                                              MA   =           49.31107
                                              Ha   =            220.496  n.mi
                                              Hp   =            214.787
 
              M50 Cartesian                         J2K Cartesian  
    -----------------------------------       --------------------------------
     X    =       17786295.86                 X    =         5467826.19
     Y    =      -13346695.13  feet           Y    =        -4007188.20  meter
     Z    =        -996866.27                 Z    =         -277396.35
     XDOT =       8633.804317                 XDOT =        2616.500559
     YDOT =      12951.790108  feet/sec       YDOT =        3977.048572  meter/sec
     ZDOT =     -19760.501516                 ZDOT =       -6010.254618
 
              TDR Cartesian                         TDR Cartesian  
    -----------------------------------       --------------------------------
     X    =       -3039942.10                 X    =         -926574.35
     Y    =       22033210.27  feet           Y    =         6715722.49  meter
     Z    =        -881323.29                 Z    =         -268627.34
     XDOT =     -13758.836016                 XDOT =       -4193.693218
     YDOT =      -2668.463687  feet/sec       YDOT =        -813.347732  meter/sec
     ZDOT =     -19705.751870                 ZDOT =       -6006.313170
  
  
    The mean element set is posted at the UTC for which position is
    just north of the next ascending node relative to the above
    vector time
 
 
    TWO LINE MEAN ELEMENT SET
  
    ISS
    1 25544U 98067A   16080.16507840  .00016717  00000-0  10270-3 0  9159
    2 25544  51.6406 142.0164 0002259 330.3119  29.7906 15.54296518 31137
  
  
    Satellite: ISS
    Catalog Number: 25544
    Epoch time:      16080.16507840   =   yrday.fracday
    Element set:     915
    Inclination:       51.6406  deg
    RA of node:       142.0164  deg
    Eccentricity:     .0002259     
    Arg of perigee:   330.3119  deg
    Mean anomaly:      29.7906  deg
    Mean motion:   15.54296518  rev/day
    Decay rate:    1.67170E-04  rev/day^2
    Epoch rev:            3113
    Checksum:              290
 
 
    Coasting Arc #17 (Orbit 3117)
    ---------------------------------------
 
    Vector Time (GMT): 2016/080/10:25:00.000
    Vector Time (MET): N/A
    Weight (LBS)     : 905198.2
 
              M50 Cartesian                         M50 Keplerian  
    -----------------------------------       --------------------------------
     X    =       -4555831.83                 A    =         6778781.92  meter
     Y    =       -1156263.35  meter          E    =           .0005352
     Z    =        4881124.17                 I    =           51.86412
     XDOT =       4121.159383                 Wp   =          112.66696
     YDOT =      -5999.917524  meter/sec      RA   =          139.62181  deg
     ZDOT =       2421.102537                 TA   =          313.65342
                                              MA   =          313.69778
                                              Ha   =            220.530  n.mi
                                              Hp   =            214.767
 
              M50 Cartesian                         J2K Cartesian  
    -----------------------------------       --------------------------------
     X    =      -14946954.83                 X    =        -4566273.75
     Y    =       -3793514.91  feet           Y    =        -1207267.37  meter
     Z    =       16014186.91                 Z    =         4858968.13
     XDOT =      13520.864116                 XDOT =        4176.185113
     YDOT =     -19684.768779  feet/sec       YDOT =       -5953.523967  meter/sec
     ZDOT =       7943.249793                 ZDOT =        2441.256382
 
              TDR Cartesian                         TDR Cartesian  
    -----------------------------------       --------------------------------
     X    =      -11826762.57                 X    =        -3604797.23
     Y    =      -10049760.84  feet           Y    =        -3063167.10  meter
     Z    =       15918115.18                 Z    =         4851841.51
     XDOT =      20046.193704                 XDOT =        6110.079841
     YDOT =     -10847.479039  feet/sec       YDOT =       -3306.311611  meter/sec
     ZDOT =       8031.755480                 ZDOT =        2448.079070
  
  
    The mean element set is posted at the UTC for which position is
    just north of the next ascending node relative to the above
    vector time
 
 
    TWO LINE MEAN ELEMENT SET
  
    ISS
    1 25544U 98067A   16080.48655554  .00016717  00000-0  10270-3 0  9161
    2 25544  51.6434 140.4129 0001881 323.8443  36.2582 15.54317427 31189
  
  
    Satellite: ISS
    Catalog Number: 25544
    Epoch time:      16080.48655554   =   yrday.fracday
    Element set:     916
    Inclination:       51.6434  deg
    RA of node:       140.4129  deg
    Eccentricity:     .0001881     
    Arg of perigee:   323.8443  deg
    Mean anomaly:      36.2582  deg
    Mean motion:   15.54317427  rev/day
    Decay rate:    1.67170E-04  rev/day^2
    Epoch rev:            3118
    Checksum:              304
 
 
    Coasting Arc #18 (Orbit 3132)
    ---------------------------------------
 
    Vector Time (GMT): 2016/081/10:25:00.000
    Vector Time (MET): N/A
    Weight (LBS)     : 905198.2
 
              M50 Cartesian                         M50 Keplerian  
    -----------------------------------       --------------------------------
     X    =        3345985.20                 A    =         6776967.38  meter
     Y    =        2555407.99  meter          E    =           .0013992
     Z    =       -5322535.31                 I    =           51.88031
     XDOT =      -5101.100645                 Wp   =           79.15135
     YDOT =       5692.940560  meter/sec      RA   =          134.63886  deg
     ZDOT =       -472.025340                 TA   =          186.34649
                                              MA   =          186.36423
                                              Ha   =            220.503  n.mi
                                              Hp   =            214.854
 
